IRIDIUM 159             
1 43578U 18061K   25037.71021281  .00000224  00000+0  72878-4 0  9995
2 43578  86.3928 263.7320 0001763  84.0688 276.0708 14.34217447342364
IRIDIUM 180             
1 43922U 19002A   25037.84925083  .00000644  00000+0  22291-3 0  9990
2 43922  86.3995 200.5716 0001977  97.1862 262.9559 14.34218938318036
IRIDIUM 176             
1 43923U 19002B   25037.53847042  .00000347  00000+0  51089-4 0  9993
2 43923  86.6115 200.7040 0001052 106.6193 253.5139 14.72254114326322
IRIDIUM 168             
1 43924U 19002C   25037.49405806  .00000210  00000+0  67963-4 0  9994
2 43924  86.3994 200.7829 0001910  92.3854 267.7560 14.34219496317921
IRIDIUM 173             
1 43925U 19002D   25037.48137050  .00000582  00000+0  20089-3 0  9996
2 43925  86.4000 200.6988 0001831  92.5999 267.5407 14.34215059317907
IRIDIUM 169             
1 43926U 19002E   25037.59783603  .00000264  00000+0  79828-4 0  9993
2 43926  86.4199 232.2456 0002949 121.2850 238.8637 14.38606835318979
IRIDIUM 172             
1 43927U 19002F   25037.54480373  .00000487  00000+0  16672-3 0  9991
2 43927  86.3993 200.6776 0001904  93.4800 266.6614 14.34221684317929
IRIDIUM 175             
1 43928U 19002G   25037.73709747  .00000476  00000+0  71498-4 0  9998
2 43928  86.1562 160.5815 0003181  96.6004 263.5574 14.72225997326348
